{"type":"FeatureCollection","features":[{"type":"Feature","properties":{"name":"Estacada Line, Boring\u2013Cazadero","operator":"Portland Railway, Light & Power Co.","note":"Continues PT V1 (East Portland\u2013Boring).","legs_snapped":4,"legs_total":4,"sources":{"MyMaps":14.8,"gap":0.0,"OSM":7.7},"unmatched":false},"geometry":{"type":"LineString","coordinates":[[-122.3752,45.4308],[-122.3761,45.4284],[-122.3783,45.4267],[-122.3853,45.4248],[-122.3879,45.4231],[-122.3912,45.422],[-122.3975,45.4176],[-122.3986,45.416],[-122.3988,45.4102],[-122.3993,45.409],[-122.4068,45.4001],[-122.4075,45.3986],[-122.4087,45.393],[-122.4083,45.3908],[-122.4077,45.3897],[-122.4058,45.3882],[-122.3642,45.3615],[-122.3594,45.3575],[-122.3565,45.3542],[-122.353,45.3481],[-122.3515,45.3426],[-122.342,45.2908],[-122.3387,45.2876],[-122.3326,45.285],[-122.331,45.2835],[-122.3265,45.2816],[-122.3229,45.2788],[-122.3182,45.2703],[-122.315,45.2683],[-122.3141,45.2665],[-122.3104,45.265],[-122.3092,45.2639]]}},{"type":"Feature","properties":{"name":"Mount Hood Line, Ruby Jct.\u2013Bull Run","operator":"Mount Hood Railway & Power Co. (PRL&P)","note":"","legs_snapped":4,"legs_total":4,"sources":{"MyMaps":25.3,"gap":0.5},"unmatched":false},"geometry":{"type":"LineString","coordinates":[[-122.4571,45.5178],[-122.4567,45.5136],[-122.4569,45.5084],[-122.4577,45.5057],[-122.4658,45.4915],[-122.4686,45.4892],[-122.4723,45.4879],[-122.4665,45.4887],[-122.4493,45.4898],[-122.4449,45.492],[-122.4407,45.4951],[-122.4386,45.4957],[-122.4311,45.4953],[-122.428,45.4934],[-122.4058,45.494],[-122.3829,45.4738],[-122.3799,45.4722],[-122.2981,45.4677],[-122.2958,45.4661],[-122.2886,45.4629],[-122.2874,45.4601],[-122.2856,45.4583],[-122.2817,45.4564],[-122.2785,45.4562],[-122.276,45.4572],[-122.2737,45.459],[-122.271,45.4592],[-122.2661,45.4567],[-122.2623,45.4524],[-122.2595,45.4512],[-122.2548,45.4515],[-122.2508,45.4503],[-122.2482,45.4508],[-122.2481,45.45],[-122.2492,45.4488],[-122.2484,45.4432],[-122.2431,45.4415],[-122.2379,45.438],[-122.2361,45.4358],[-122.2352,45.4301],[-122.2338,45.4286]]}},{"type":"Feature","properties":{"name":"Troutdale Branch","operator":"Mount Hood Railway & Power Co. (PRL&P)","note":"","legs_snapped":1,"legs_total":1,"sources":{"MyMaps":7.1,"gap":0.0,"OSM":0.3},"unmatched":false},"geometry":{"type":"LineString","coordinates":[[-122.4571,45.5178],[-122.4573,45.5319],[-122.4563,45.534],[-122.4536,45.5358],[-122.4488,45.5365],[-122.4396,45.5349],[-122.4351,45.5349],[-122.4086,45.5385],[-122.3949,45.5394],[-122.391,45.5414],[-122.3868,45.5413]]}},{"type":"Feature","properties":{"name":"Willamette Valley Southern, Oregon City\u2013Mt. Angel","operator":"Willamette Valley Southern Ry. (PRL&P)","note":"Under construction April 1914.","legs_snapped":4,"legs_total":4,"sources":{"ODOT":0.8,"gap":0.3,"OSM":0.5,"MyMaps":50.5},"unmatched":false},"geometry":{"type":"LineString","coordinates":[[-122.6074,45.3573],[-122.6022,45.3606],[-122.6001,45.3625],[-122.5975,45.3619],[-122.5932,45.3623],[-122.5846,45.3609],[-122.5799,45.3586],[-122.579,45.3567],[-122.5792,45.3557],[-122.5771,45.3537],[-122.5743,45.352],[-122.5744,45.3515],[-122.5771,45.3502],[-122.5765,45.349],[-122.575,45.3481],[-122.5747,45.3469],[-122.5759,45.3462],[-122.5773,45.3462],[-122.5776,45.3451],[-122.5772,45.3442],[-122.5721,45.3399],[-122.5718,45.339],[-122.5727,45.3375],[-122.5724,45.3349],[-122.5712,45.333],[-122.5694,45.3315],[-122.5692,45.3247],[-122.5669,45.3217],[-122.5578,45.3068],[-122.5546,45.3058],[-122.5531,45.3047],[-122.5469,45.2979],[-122.5458,45.2925],[-122.545,45.2911],[-122.5427,45.2893],[-122.5419,45.2873],[-122.5439,45.2789],[-122.5496,45.2726],[-122.5507,45.2684],[-122.553,45.2655],[-122.5573,45.2631],[-122.5591,45.2613],[-122.5606,45.2586],[-122.5628,45.258],[-122.5648,45.2564],[-122.5655,45.2508],[-122.5668,45.2483],[-122.5667,45.247],[-122.5656,45.2457],[-122.5637,45.2445],[-122.5594,45.2396],[-122.5615,45.2381],[-122.5613,45.2368],[-122.5595,45.2366],[-122.5573,45.2383],[-122.552,45.2378],[-122.551,45.2372],[-122.551,45.2365],[-122.5517,45.2356],[-122.5584,45.2328],[-122.5601,45.2308],[-122.5628,45.2296],[-122.5648,45.2292],[-122.577,45.2299],[-122.5786,45.2296],[-122.5849,45.2266],[-122.5862,45.2253],[-122.5866,45.2241],[-122.5863,45.1975],[-122.5889,45.1923],[-122.59,45.1868],[-122.5932,45.1815],[-122.5938,45.1796],[-122.5926,45.1767],[-122.5902,45.1742],[-122.5897,45.173],[-122.583,45.1485],[-122.5832,45.1478],[-122.585,45.1468],[-122.6147,45.1455],[-122.6759,45.139],[-122.6818,45.1379],[-122.6849,45.1367],[-122.7434,45.1072],[-122.7869,45.0672],[-122.7915,45.0659],[-122.7994,45.0657],[-122.8,45.0682]]}},{"type":"Feature","properties":{"name":"Oregon Electric, Portland\u2013Eugene","operator":"Oregon Electric Railway","note":"Willamette Route. Plats published.","legs_snapped":14,"legs_total":14,"sources":{"MyMaps":19.9,"gap":0.8,"OSM":110.5,"ODOT":66.6},"unmatched":false},"geometry":{"type":"LineString","coordinates":[[-122.6762,45.5108],[-122.676,45.5076],[-122.6753,45.5058],[-122.6739,45.5042],[-122.6733,45.502],[-122.6735,45.4943],[-122.6742,45.4916],[-122.6786,45.4873],[-122.6792,45.4858],[-122.6787,45.476],[-122.6773,45.4724],[-122.6773,45.4715],[-122.6783,45.4704],[-122.6796,45.4697],[-122.6857,45.4704],[-122.6885,45.4701],[-122.6895,45.4698],[-122.6946,45.4659],[-122.6978,45.465],[-122.7147,45.4674],[-122.721,45.4663],[-122.7229,45.4673],[-122.7253,45.4699],[-122.7272,45.4706],[-122.7288,45.4706],[-122.733,45.4683],[-122.7354,45.4677],[-122.7459,45.4672],[-122.7489,45.4652],[-122.752,45.4617],[-122.759,45.4603],[-122.7611,45.4589],[-122.7674,45.4463],[-122.7695,45.4446],[-122.7798,45.4392],[-122.7812,45.4379],[-122.7815,45.4359],[-122.7807,45.4346],[-122.7701,45.4304],[-122.7532,45.4167],[-122.7523,45.4144],[-122.7518,45.4059],[-122.7521,45.4044],[-122.7535,45.4028],[-122.762,45.399],[-122.7643,45.3969],[-122.7644,45.3812],[-122.7651,45.3797],[-122.7675,45.3783],[-122.7764,45.3773],[-122.7845,45.3734],[-122.7866,45.3712],[-122.7953,45.3545],[-122.7952,45.3526],[-122.7939,45.349],[-122.7952,45.3436],[-122.7952,45.3418],[-122.7926,45.3351],[-122.7911,45.3331],[-122.7831,45.3274],[-122.7764,45.3197],[-122.7753,45.3173],[-122.7752,45.2982],[-122.7777,45.2886],[-122.7795,45.286],[-122.7868,45.2788],[-122.9057,45.1489],[-122.8825,45.1516],[-122.8804,45.1509],[-122.8557,45.14],[-122.8575,45.1408],[-122.8577,45.1407],[-122.8581,45.1407],[-122.8589,45.1403],[-122.9325,45.0807],[-122.9822,45.023],[-123.0049,44.9759],[-123.0101,44.9674],[-123.0186,44.9667],[-123.0268,44.9593],[-123.0288,44.9569],[-123.0342,44.9561],[-123.0387,44.9475],[-123.0413,44.9442],[-123.0427,44.9405],[-123.042,44.9387],[-123.0413,44.9384],[-123.0417,44.9385],[-123.042,44.9387],[-123.0424,44.9397],[-123.0428,44.9396],[-123.0448,44.9346],[-123.0501,44.9293],[-123.0542,44.9235],[-123.0618,44.9183],[-123.0739,44.9117],[-123.0776,44.9104],[-123.0945,44.9073],[-123.1027,44.9021],[-123.1118,44.8974],[-123.1205,44.8961],[-123.1265,44.8939],[-123.1296,44.8907],[-123.1393,44.8779],[-123.1426,44.8746],[-123.1463,44.8664],[-123.1466,44.8649],[-123.1463,44.8595],[-123.148,44.8535],[-123.1479,44.8496],[-123.1474,44.848],[-123.1422,44.8404],[-123.134,44.8323],[-123.1315,44.831],[-123.127,44.8298],[-123.1165,44.8255],[-123.1128,44.8248],[-123.1059,44.8245],[-123.1019,44.8235],[-123.0996,44.8224],[-123.092,44.817],[-123.0899,44.8135],[-123.0893,44.8112],[-123.0894,44.8091],[-123.0951,44.7379],[-123.0819,44.6873],[-123.0718,44.6655],[-123.0655,44.657],[-123.0647,44.6541],[-123.068,44.6453],[-123.0718,44.6423],[-123.0771,44.6407],[-123.0849,44.6405],[-123.1099,44.6377],[-123.1157,44.6337],[-123.1223,44.6315],[-123.1245,44.6302],[-123.1581,44.5822],[-123.1594,44.5797],[-123.1695,44.2774],[-123.1694,44.2552],[-123.1706,44.2523],[-123.1728,44.2505],[-123.181,44.2445],[-123.2013,44.2319],[-123.2034,44.23],[-123.204,44.2284],[-123.204,44.2263],[-123.2029,44.2049],[-123.2012,44.2035],[-123.2004,44.2035],[-123.1993,44.1818],[-123.1984,44.1788],[-123.1528,44.0911],[-123.148,44.0827],[-123.1442,44.0794],[-123.1111,44.0589],[-123.1054,44.057],[-123.0969,44.0559],[-123.0958,44.0543],[-123.0957,44.05],[-123.0897,44.0501]]}},{"type":"Feature","properties":{"name":"Oregon Electric, Forest Grove Branch","operator":"Oregon Electric Railway","note":"","legs_snapped":3,"legs_total":3,"sources":{"MyMaps":14.6,"gap":0.6,"OSM":0.6,"ODOT":15.4},"unmatched":false},"geometry":{"type":"LineString","coordinates":[[-122.7367,45.4676],[-122.7432,45.4676],[-122.7479,45.4665],[-122.7498,45.4666],[-122.7546,45.4691],[-122.7584,45.4703],[-122.7648,45.4701],[-122.7716,45.4713],[-122.7754,45.4725],[-122.7969,45.485],[-122.8013,45.4868],[-122.9492,45.5021],[-122.9529,45.5031],[-122.9817,45.5151],[-122.9905,45.5168],[-122.9914,45.5179],[-122.9913,45.5213],[-122.9907,45.5214],[-123.0072,45.521],[-123.0289,45.5242],[-123.0975,45.5239],[-123.1005,45.5232],[-123.1095,45.519]]}},{"type":"Feature","properties":{"name":"Oregon Electric, Corvallis Branch","operator":"Oregon Electric Railway","note":"","legs_snapped":1,"legs_total":1,"sources":{"ODOT":0.2,"gap":0.7,"MyMaps":7.7,"OSM":0.2},"unmatched":false},"geometry":{"type":"LineString","coordinates":[[-123.1596,44.5755],[-123.1599,44.5727],[-123.1609,44.5717],[-123.1625,44.5711],[-123.251,44.571],[-123.2527,44.5706],[-123.2537,44.5688],[-123.2568,44.5677],[-123.2626,44.568],[-123.2636,44.5661]]}},{"type":"Feature","properties":{"name":"Oregon Electric, Woodburn Branch","operator":"Oregon Electric Railway","note":"","legs_snapped":1,"legs_total":1,"sources":{"MyMaps":2.6,"gap":0.0,"ODOT":0.3,"OSM":0.2},"unmatched":false},"geometry":{"type":"LineString","coordinates":[[-122.8845,45.1523],[-122.8804,45.1509],[-122.8557,45.14],[-122.8566,45.1407],[-122.8567,45.1418],[-122.8547,45.1438]]}},{"type":"Feature","properties":{"name":"United Railways, Portland\u2013Wilkesboro","operator":"United Railways","note":"Operated with Oregon Electric.","legs_snapped":3,"legs_total":4,"sources":{"OSM":11.1,"gap":0.0,"ODOT":24.9},"unmatched":true},"geometry":{"type":"LineString","coordinates":[[-122.6917,45.5388],[-122.711,45.5503],[-122.7264,45.5559],[-122.7356,45.557],[-122.7386,45.5584],[-122.7528,45.5688],[-122.7666,45.5831],[-122.7806,45.5936],[-122.7939,45.6102],[-122.8107,45.6207],[-122.8154,45.6249],[-122.8215,45.629],[-122.8237,45.6317],[-122.8245,45.6323],[-122.8259,45.6336],[-122.8272,45.6346],[-122.8304,45.6373],[-122.8316,45.6384],[-122.8331,45.6396],[-122.8335,45.64],[-122.836,45.642],[-122.8231,45.6309],[-122.8235,45.6307],[-122.8245,45.6313],[-122.833,45.6385],[-122.8424,45.6445],[-122.8474,45.6471],[-122.8519,45.6472],[-122.8554,45.6452],[-122.858,45.6407],[-122.8587,45.6379],[-122.8614,45.6335],[-122.8618,45.6304],[-122.86,45.6254],[-122.8603,45.6211],[-122.8586,45.618],[-122.859,45.6162],[-122.8609,45.614],[-122.8744,45.6056],[-122.8792,45.6045],[-122.8893,45.5988],[-122.9065,45.5953],[-122.9134,45.5953],[-122.9482,45.5984],[-122.968,45.601],[-122.9719,45.6008],[-122.9866,45.5976],[-122.9926,45.5975],[-123.06,45.64]]}}]}