{"type":"Feature","properties":{"name":"Oregon","source":"Natural Earth 10m admin-1 (public domain)"},"geometry":{"type":"MultiPolygon","coordinates":[[[[-124.492,42.93],[-124.445,43.03],[-124.424,43.119],[-124.416,43.125],[-124.418,43.142],[-124.387,43.263],[-124.395,43.3],[-124.401,43.31],[-124.377,43.34],[-124.36,43.342],[-124.342,43.352],[-124.329,43.349],[-124.326,43.339],[-124.326,43.312],[-124.317,43.3],[-124.308,43.328],[-124.312,43.339],[-124.309,43.355],[-124.301,43.364],[-124.287,43.371],[-124.276,43.394],[-124.253,43.417],[-124.233,43.424],[-124.222,43.425],[-124.218,43.416],[-124.218,43.386],[-124.213,43.375],[-124.178,43.369],[-124.152,43.369],[-124.14,43.375],[-124.17,43.38],[-124.187,43.391],[-124.194,43.42],[-124.209,43.431],[-124.207,43.443],[-124.198,43.452],[-124.209,43.452],[-124.233,43.447],[-124.24,43.437],[-124.277,43.421],[-124.283,43.403],[-124.325,43.363],[-124.335,43.365],[-124.298,43.418],[-124.238,43.547],[-124.223,43.586],[-124.21,43.657],[-124.202,43.663],[-124.175,43.673],[-124.154,43.698],[-124.142,43.722],[-124.14,43.733],[-124.133,43.735],[-124.126,43.729],[-124.117,43.711],[-124.109,43.706],[-124.072,43.705],[-124.07,43.712],[-124.086,43.713],[-124.101,43.719],[-124.129,43.749],[-124.149,43.748],[-124.16,43.737],[-124.161,43.718],[-124.172,43.698],[-124.191,43.685],[-124.203,43.681],[-124.176,43.762],[-124.151,43.882],[-124.14,43.982],[-124.137,43.99],[-124.124,43.996],[-124.119,44.006],[-124.133,44.032],[-124.134,44.044],[-124.114,44.191],[-124.114,44.249],[-124.107,44.286],[-124.114,44.307],[-124.1,44.327],[-124.084,44.412],[-124.065,44.429],[-124.054,44.433],[-124.035,44.416],[-124.018,44.41],[-124.028,44.439],[-124.05,44.449],[-124.083,44.428],[-124.081,44.462],[-124.084,44.498],[-124.063,44.61],[-124.046,44.621],[-124.031,44.618],[-124.012,44.6],[-124.005,44.616],[-124.007,44.624],[-124.019,44.627],[-124.027,44.622],[-124.048,44.633],[-124.068,44.618],[-124.071,44.621],[-124.059,44.652],[-124.058,44.664],[-124.063,44.672],[-124.078,44.675],[-124.072,44.679],[-124.067,44.689],[-124.058,44.726],[-124.059,44.746],[-124.073,44.778],[-124.065,44.823],[-124.054,44.839],[-124.046,44.858],[-124.035,44.878],[-124.032,44.905],[-124.018,44.917],[-124.018,44.927],[-124.026,44.936],[-124.015,44.968],[-124.005,45.044],[-124.016,45.054],[-124.014,45.064],[-124.004,45.083],[-123.984,45.105],[-123.971,45.154],[-123.969,45.205],[-123.976,45.217],[-123.965,45.258],[-123.96,45.3],[-123.972,45.331],[-124.002,45.338],[-124.002,45.344],[-123.981,45.35],[-123.973,45.362],[-123.968,45.392],[-123.958,45.415],[-123.953,45.413],[-123.961,45.379],[-123.944,45.389],[-123.918,45.418],[-123.955,45.433],[-123.971,45.452],[-123.971,45.494],[-123.959,45.516],[-123.954,45.548],[-123.949,45.557],[-123.946,45.526],[-123.939,45.5],[-123.922,45.495],[-123.913,45.483],[-123.891,45.475],[-123.894,45.482],[-123.883,45.5],[-123.889,45.52],[-123.897,45.525],[-123.901,45.538],[-123.896,45.56],[-123.925,45.554],[-123.958,45.576],[-123.945,45.621],[-123.942,45.649],[-123.921,45.663],[-123.922,45.684],[-123.918,45.69],[-123.91,45.691],[-123.887,45.683],[-123.88,45.687],[-123.871,45.698],[-123.886,45.694],[-123.897,45.696],[-123.908,45.708],[-123.917,45.704],[-123.921,45.697],[-123.93,45.693],[-123.932,45.669],[-123.938,45.661],[-123.937,45.699],[-123.942,45.727],[-123.948,45.736],[-123.964,45.744],[-123.969,45.753],[-123.968,45.761],[-123.981,45.76],[-123.982,45.768],[-123.968,45.782],[-123.967,45.796],[-123.959,45.816],[-123.957,45.873],[-123.96,45.897],[-123.97,45.919],[-123.991,45.938],[-123.982,45.948],[-123.973,45.953],[-123.964,45.967],[-123.934,45.98],[-123.923,46.014],[-123.937,46.082],[-123.951,46.12],[-123.99,46.201],[-124.023,46.231],[-124.017,46.235],[-124.003,46.238],[-123.988,46.227],[-123.995,46.22],[-123.985,46.21],[-123.969,46.211],[-123.951,46.205],[-123.924,46.191],[-123.916,46.181],[-123.904,46.18],[-123.901,46.169],[-123.867,46.16],[-123.835,46.162],[-123.825,46.157],[-123.819,46.147],[-123.812,46.114],[-123.799,46.102],[-123.801,46.144],[-123.778,46.137],[-123.778,46.143],[-123.807,46.168],[-123.816,46.171],[-123.844,46.173],[-123.861,46.181],[-123.865,46.186],[-123.798,46.194],[-123.767,46.204],[-123.727,46.17],[-123.706,46.171],[-123.614,46.186],[-123.599,46.192],[-123.62,46.197],[-123.621,46.205],[-123.607,46.209],[-123.582,46.207],[-123.542,46.226],[-123.537,46.234],[-123.519,46.235],[-123.485,46.23],[-123.473,46.217],[-123.437,46.198],[-123.43,46.177],[-123.386,46.146],[-123.326,46.139],[-123.299,46.141],[-123.278,46.134],[-123.256,46.133],[-123.233,46.137],[-123.206,46.165],[-123.18,46.179],[-123.112,46.186],[-123.092,46.183],[-123.03,46.149],[-122.999,46.146],[-122.967,46.136],[-122.91,46.108],[-122.892,46.092],[-122.874,46.072],[-122.861,46.05],[-122.85,46.012],[-122.807,45.978],[-122.801,45.962],[-122.792,45.916],[-122.774,45.881],[-122.781,45.843],[-122.78,45.82],[-122.757,45.792],[-122.753,45.782],[-122.759,45.741],[-122.754,45.702],[-122.748,45.68],[-122.739,45.663],[-122.722,45.649],[-122.673,45.626],[-122.595,45.614],[-122.555,45.622],[-122.54,45.622],[-122.507,45.61],[-122.456,45.6],[-122.426,45.588],[-122.342,45.587],[-122.261,45.566],[-121.971,45.642],[-121.931,45.66],[-121.862,45.701],[-121.821,45.717],[-121.793,45.721],[-121.718,45.71],[-121.57,45.729],[-121.272,45.709],[-121.224,45.697],[-121.204,45.685],[-121.173,45.632],[-121.155,45.622],[-121.133,45.624],[-121.039,45.653],[-121.001,45.65],[-120.968,45.651],[-120.943,45.646],[-120.9,45.642],[-120.839,45.653],[-120.787,45.68],[-120.716,45.69],[-120.669,45.703],[-120.658,45.717],[-120.631,45.729],[-120.621,45.731],[-120.47,45.71],[-120.426,45.721],[-120.374,45.714],[-120.363,45.715],[-120.29,45.74],[-120.23,45.737],[-120.202,45.746],[-120.176,45.759],[-120.145,45.781],[-120.127,45.789],[-120.08,45.795],[-119.934,45.838],[-119.662,45.872],[-119.621,45.896],[-119.592,45.921],[-119.575,45.928],[-119.549,45.93],[-119.48,45.927],[-119.341,45.946],[-119.093,45.949],[-119.045,45.964],[-119.002,46.0],[-116.879,46.001],[-116.868,45.966],[-116.839,45.91],[-116.779,45.867],[-116.759,45.838],[-116.688,45.827],[-116.657,45.804],[-116.599,45.778],[-116.557,45.772],[-116.53,45.752],[-116.517,45.732],[-116.499,45.691],[-116.464,45.642],[-116.456,45.622],[-116.455,45.601],[-116.463,45.582],[-116.512,45.536],[-116.531,45.502],[-116.539,45.471],[-116.587,45.428],[-116.602,45.395],[-116.636,45.366],[-116.649,45.348],[-116.656,45.285],[-116.679,45.251],[-116.697,45.19],[-116.717,45.151],[-116.831,45.025],[-116.835,45.015],[-116.832,45.003],[-116.82,44.988],[-116.822,44.967],[-116.833,44.92],[-116.841,44.901],[-116.864,44.866],[-116.917,44.803],[-116.95,44.778],[-117.011,44.75],[-117.029,44.734],[-117.104,44.612],[-117.112,44.573],[-117.122,44.554],[-117.149,44.525],[-117.18,44.514],[-117.183,44.501],[-117.204,44.482],[-117.194,44.456],[-117.212,44.418],[-117.215,44.395],[-117.198,44.363],[-117.195,44.35],[-117.202,44.316],[-117.195,44.298],[-117.179,44.285],[-117.14,44.264],[-117.113,44.288],[-117.099,44.292],[-117.086,44.29],[-117.065,44.264],[-117.044,44.26],[-116.986,44.272],[-116.973,44.268],[-116.969,44.237],[-116.961,44.224],[-116.956,44.218],[-116.917,44.2],[-116.897,44.186],[-116.892,44.177],[-116.907,44.158],[-116.908,44.135],[-116.912,44.124],[-116.921,44.114],[-116.931,44.11],[-116.959,44.109],[-116.969,44.1],[-116.969,44.084],[-116.941,44.05],[-116.934,44.029],[-116.936,44.017],[-116.948,43.991],[-116.955,43.95],[-116.967,43.917],[-116.971,43.893],[-116.983,43.871],[-116.994,43.858],[-117.016,43.845],[-117.031,43.829],[-117.02,43.785],[-117.017,42.0],[-124.215,42.0],[-124.217,42.006],[-124.275,42.045],[-124.293,42.046],[-124.336,42.092],[-124.35,42.098],[-124.36,42.113],[-124.354,42.132],[-124.366,42.15],[-124.364,42.175],[-124.376,42.197],[-124.379,42.22],[-124.395,42.239],[-124.412,42.249],[-124.409,42.296],[-124.433,42.329],[-124.426,42.362],[-124.425,42.42],[-124.44,42.439],[-124.424,42.454],[-124.421,42.491],[-124.406,42.52],[-124.394,42.567],[-124.398,42.586],[-124.403,42.595],[-124.4,42.616],[-124.415,42.662],[-124.454,42.687],[-124.467,42.703],[-124.473,42.73],[-124.492,42.738],[-124.505,42.737],[-124.515,42.749],[-124.532,42.804],[-124.539,42.816],[-124.549,42.826],[-124.567,42.834],[-124.548,42.845],[-124.492,42.93]]],[[[-123.481,46.256],[-123.471,46.255],[-123.444,46.236],[-123.437,46.22],[-123.441,46.213],[-123.468,46.225],[-123.478,46.236],[-123.482,46.249],[-123.481,46.256]]]]}}